IRIDIUM 171             
1 43929U 19002H   25342.62350729 -.00000050  00000+0 -25005-4 0  9991
2 43929  86.3974  73.5234 0002152 101.5906 258.5531 14.34216908361649
IRIDIUM 170             
1 43930U 19002J   25342.31185657  .00001139  00000+0  17676-3 0  9996
2 43930  86.6086  73.3671 0002253  91.5601 268.5874 14.72246577371170
IRIDIUM 167             
1 43931U 19002K   25342.61716460 -.00000105  00000+0 -44392-4 0  9992
2 43931  86.3966  73.2614 0002163 108.4576 251.6855 14.34215973361647
IRIDIUM 181             
1 56726U 23068S   25342.51994948  .00000636  00000+0  18300-3 0  9999
2 56726  86.4508 136.4879 0002574  86.8830 273.2665 14.43319244134934
IRIDIUM 177             
1 56727U 23068T   25342.61845363  .00002779  00000+0  36211-3 0  9998
2 56727  86.1968  59.2872 0002307  85.7742 274.3743 14.80241672138170
IRIDIUM 174             
1 56728U 23068U   25342.63932708  .00002252  00000+0  35318-3 0  9994
2 56728  86.6095  73.3587 0002280  88.1275 272.0204 14.72256621137981
IRIDIUM 178             
1 56729U 23068V   25342.60755610  .00002791  00000+0  36388-3 0  9993
2 56729  86.6538 105.0252 0002408  99.5282 260.6212 14.80229032138171
IRIDIUM 179             
1 56730U 23068W   25342.46697059  .00002765  00000+0  36053-3 0  9991
2 56730  86.6778 113.4940 0002519  93.6687 266.4823 14.80226965138155
